NORAD_CAT_ID,OBJECT_NAME,OBJECT_TYPE,EPOCH,MEAN_MOTION,ECCENTRICITY,INCLINATION,RA_OF_ASC_NODE,ARG_OF_PERICENTER,MEAN_ANOMALY,BSTAR,MEAN_MOTION_DOT,MEAN_MOTION_DDOT,TLE_LINE0,TLE_LINE1,TLE_LINE2,SEMIMAJOR_AXIS,PERIOD,APOGEE,PERIGEE,DECAYED
51753.0,STARLINK-3507,PAYLOAD,2023-08-13 02:08:22,15.0884592,0.0001099,53.2157,207.1513,87.5467,272.5651,8.2338e-05,1.023e-05,0.0,0 STARLINK-3507,1 51753U 22016AR  23225.08914649  .00001023  00000-0  82338-4 0  9991,2 51753  53.2157 207.1513 0001099  87.5467 272.5651 15.08845920 82922,6917.862,95.437,540.488,538.967,0.0
51753.0,STARLINK-3507,PAYLOAD,2023-08-14 01:59:10,15.08832785,0.0001174,53.2163,202.6922,83.8287,276.2839,2.4787e-05,1.07e-06,0.0,0 STARLINK-3507,1 51753U 22016AR  23226.08275665  .00000107  00000-0  24787-4 0  9996,2 51753  53.2163 202.6922 0001174  83.8287 276.2839 15.08832785 83077,6917.902,95.438,540.58,538.955,0.0
51753.0,STARLINK-3507,PAYLOAD,2023-08-15 01:49:56,15.08842205,0.0001238,53.2172,198.2333,87.1131,273.0003,6.0562e-05,6.76e-06,0.0,0 STARLINK-3507,1 51753U 22016AR  23227.07635080  .00000676  00000-0  60562-4 0  9999,2 51753  53.2172 198.2333 0001238  87.1131 273.0003 15.08842205 83222,6917.874,95.437,540.595,538.882,0.0
51753.0,STARLINK-3507,PAYLOAD,2023-08-16 03:16:07,15.08835149,0.0001298,53.217,193.4739,93.2736,266.8405,7.6994e-05,9.38e-06,0.0,0 STARLINK-3507,1 51753U 22016AR  23228.13619684  .00000938  00000-0  76994-4 0  9996,2 51753  53.2170 193.4739 0001298  93.2736 266.8405 15.08835149 83384,6917.895,95.438,540.658,538.862,0.0
51753.0,STARLINK-3507,PAYLOAD,2023-08-16 09:37:39,15.08841084,0.0001296,53.2171,192.2844,92.6696,267.4445,0.00012011,1.624e-05,0.0,0 STARLINK-3507,1 51753U 22016AR  23228.40115254  .00001624  00000-0  12011-3 0  9992,2 51753  53.2171 192.2844 0001296  92.6696 267.4445 15.08841084 83426,6917.877,95.437,540.639,538.846,0.0
51753.0,STARLINK-3507,PAYLOAD,2023-08-16 20:45:22,15.0883083,0.0001484,53.217,190.1988,128.3681,231.7444,3.5641e-05,2.79e-06,0.0,0 STARLINK-3507,1 51753U 22016AR  23228.86484106  .00000279  00000-0  35641-4 0  9997,2 51753  53.2170 190.1988 0001484 128.3681 231.7444 15.08830830 83498,6917.908,95.438,540.8,538.747,0.0
51753.0,STARLINK-3507,PAYLOAD,2023-08-17 07:53:03,15.08846113,0.0001375,53.2165,188.1218,93.6386,266.4763,0.00010978,1.46e-05,0.0,0 STARLINK-3507,1 51753U 22016AR  23229.32851208  .00001460  00000-0  10978-3 0  9998,2 51753  53.2165 188.1218 0001375  93.6386 266.4763 15.08846113 83568,6917.862,95.437,540.678,538.775,0.0
51753.0,STARLINK-3507,PAYLOAD,2023-08-18 02:57:41,15.08841084,0.0001338,53.2168,184.5534,91.0489,269.0656,5.621e-05,6.07e-06,0.0,0 STARLINK-3507,1 51753U 22016AR  23230.12339764  .00000607  00000-0  56210-4 0  9998,2 51753  53.2168 184.5534 0001338  91.0489 269.0656 15.08841084 83682,6917.877,95.437,540.668,538.816,0.0
51753.0,STARLINK-3507,PAYLOAD,2023-08-19 05:59:14,15.0884561,0.0001428,53.2169,179.4979,86.2221,273.8934,9.8785e-05,1.285e-05,0.0,0 STARLINK-3507,1 51753U 22016AR  23231.24947545  .00001285  00000-0  98785-4 0  9990,2 51753  53.2169 179.4979 0001428  86.2221 273.8934 15.08845610 83859,6917.863,95.437,540.716,538.74,0.0
51753.0,STARLINK-3507,PAYLOAD,2023-08-19 13:56:10,15.08841733,0.0001474,53.217,178.0122,85.3953,274.7207,4.4299e-05,4.17e-06,0.0,0 STARLINK-3507,1 51753U 22016AR  23231.58067957  .00000417  00000-0  44299-4 0  9994,2 51753  53.2170 178.0122 0001474  85.3953 274.7207 15.08841733 83900,6917.875,95.437,540.76,538.72,0.0
51753.0,STARLINK-3507,PAYLOAD,2023-08-21 02:30:03,15.08828978,0.0001383,53.2169,171.1725,89.4339,270.6812,0.000396,6.018e-05,0.0,0 STARLINK-3507,1 51753U 22016AR  23233.10420239  .00006018  00000-0  39600-3 0  9992,2 51753  53.2169 171.1725 0001383  89.4339 270.6812 15.08828978 84132,6917.914,95.438,540.736,538.822,0.0
51753.0,STARLINK-3507,PAYLOAD,2023-08-21 05:40:48,15.08848851,0.0001526,53.217,170.5768,89.7319,270.3848,0.000101,1.32e-05,0.0,0 STARLINK-3507,1 51753U 22016AR  23233.23667360  .00001320  00000-0  10100-3 0  9999,2 51753  53.2170 170.5768 0001526  89.7319 270.3848 15.08848851 84154,6917.853,95.437,540.774,538.663,0.0
51753.0,STARLINK-3507,PAYLOAD,2023-08-22 02:20:49,15.08842588,0.0001441,53.2166,166.7105,95.3899,264.7258,1.2451e-05,-9e-07,0.0,0 STARLINK-3507,1 51753U 22016AR  23234.09779905 -.00000090  00000-0  12451-4 0  9999,2 51753  53.2166 166.7105 0001441  95.3899 264.7258 15.08842588 84280,6917.872,95.437,540.734,538.741,0.0
51753.0,STARLINK-3507,PAYLOAD,2023-08-24 03:37:47,15.08840607,0.0001407,53.2185,157.497,100.5345,259.5806,7.1024e-05,8.43e-06,0.0,0 STARLINK-3507,1 51753U 22016AR  23236.15124181  .00000843  00000-0  71024-4 0  9994,2 51753  53.2185 157.4970 0001407 100.5345 259.5806 15.08840607 83522,6917.879,95.438,540.717,538.77,0.0
51753.0,STARLINK-3507,PAYLOAD,2023-08-25 01:53:11,15.08840105,0.0001288,53.2181,153.3307,97.0474,263.0665,5.8306e-05,6.4e-06,0.0,0 STARLINK-3507,1 51753U 22016AR  23237.07860450  .00000640  00000-0  58306-4 0  9995,2 51753  53.2181 153.3307 0001288  97.0474 263.0665 15.08840105 84737,6917.88,95.438,540.636,538.854,0.0
51753.0,STARLINK-3507,PAYLOAD,2023-08-25 05:03:57,15.08841427,0.0001255,53.2178,152.7347,94.1716,265.9419,6.6294e-05,7.67e-06,0.0,0 STARLINK-3507,1 51753U 22016AR  23237.21108341  .00000767  00000-0  66294-4 0  9990,2 51753  53.2178 152.7347 0001255  94.1716 265.9419 15.08841427 83680,6917.876,95.437,540.609,538.873,0.0
51753.0,STARLINK-3507,PAYLOAD,2023-08-26 03:19:21,15.08847284,0.0001328,53.2182,148.5714,92.0835,268.0309,8.3619e-05,1.043e-05,0.0,0 STARLINK-3507,1 51753U 22016AR  23238.13844089  .00001043  00000-0  83619-4 0  9996,2 51753  53.2182 148.5714 0001328  92.0835 268.0309 15.08847284 84899,6917.858,95.437,540.642,538.804,0.0
51753.0,STARLINK-3507,PAYLOAD,2023-08-26 17:37:50,15.08837606,0.0001331,53.2184,145.896,90.364,269.7505,6.8777e-06,-1.78e-06,0.0,0 STARLINK-3507,1 51753U 22016AR  23238.73461062 -.00000178  00000-0  68777-5 0  9996,2 51753  53.2184 145.8960 0001331  90.3640 269.7505 15.08837606 84986,6917.888,95.438,540.673,538.832,0.0
51753.0,STARLINK-3507,PAYLOAD,2023-08-27 03:10:08,15.08842808,0.0001305,53.2176,144.1117,89.4352,270.679,6.0931e-05,6.82e-06,0.0,0 STARLINK-3507,1 51753U 22016AR  23239.13204554  .00000682  00000-0  60931-4 0  9994,2 51753  53.2176 144.1117 0001305  89.4352 270.6790 15.08842808 85048,6917.872,95.437,540.64,538.834,0.0
51753.0,STARLINK-3507,PAYLOAD,2023-08-28 10:57:51,15.08837082,0.0001421,53.2173,138.1653,87.9362,272.1793,0.00019012,2.739e-05,0.0,0 STARLINK-3507,1 51753U 22016AR  23240.45684588  .00002739  00000-0  19012-3 0  9998,2 51753  53.2173 138.1653 0001421  87.9362 272.1793 15.08837082 85246,6917.889,95.438,540.737,538.771,0.0
51753.0,STARLINK-3507,PAYLOAD,2023-08-28 20:30:10,15.08840442,0.0001608,53.2188,136.3784,113.7005,246.4156,3.4337e-06,-2.33e-06,0.0,0 STARLINK-3507,1 51753U 22016AR  23240.85428772 -.00000233  00000-0  34337-5 0  9990,2 51753  53.2188 136.3784 0001608 113.7005 246.4156 15.08840442 84235,6917.879,95.438,540.856,538.632,0.0
51753.0,STARLINK-3507,PAYLOAD,2023-08-28 23:40:56,15.08841508,0.0001546,53.2186,135.7851,100.9896,259.127,1.6825e-05,-2e-07,0.0,0 STARLINK-3507,1 51753U 22016AR  23240.98676714 -.00000020  00000-0  16825-4 0  9990,2 51753  53.2186 135.7851 0001546 100.9896 259.1270 15.08841508 84252,6917.876,95.437,540.81,538.671,0.0
51753.0,STARLINK-3507,PAYLOAD,2023-08-29 23:31:44,15.08836605,0.0001686,53.2183,131.3256,99.0732,261.0451,1.5931e-05,-3.5e-07,0.0,0 STARLINK-3507,1 51753U 22016AR  23241.98037199 -.00000035  00000-0  15931-4 0  9992,2 51753  53.2183 131.3256 0001686  99.0732 261.0451 15.08836605 85472,6917.891,95.438,540.922,538.589,0.0
51753.0,STARLINK-3507,PAYLOAD,2023-08-30 23:22:30,15.08838806,0.0001505,53.2173,126.8654,87.5429,272.5735,9.1544e-05,1.169e-05,0.0,0 STARLINK-3507,1 51753U 22016AR  23242.97396957  .00001169  00000-0  91544-4 0  9994,2 51753  53.2173 126.8654 0001505  87.5429 272.5735 15.08838806 84552,6917.884,95.438,540.79,538.708,0.0
51753.0,STARLINK-3507,PAYLOAD,2023-09-01 00:48:41,15.08837015,0.0001485,53.2174,122.1076,83.9737,276.1424,2.5934e-05,1.25e-06,0.0,0 STARLINK-3507,1 51753U 22016AR  23244.03381524  .00000125  00000-0  25934-4 0  9998,2 51753  53.2174 122.1076 0001485  83.9737 276.1424 15.08837015 85781,6917.89,95.438,540.782,538.727,0.0
51753.0,STARLINK-3507,PAYLOAD,2023-09-01 08:45:37,15.08838195,0.000149,53.2174,120.6208,84.1135,276.0027,2.7922e-05,1.56e-06,0.0,0 STARLINK-3507,1 51753U 22016AR  23244.36501524  .00000156  00000-0  27922-4 0  9991,2 51753  53.2174 120.6208 0001490  84.1135 276.0027 15.08838195 84767,6917.886,95.438,540.782,538.72,0.0
51753.0,STARLINK-3507,PAYLOAD,2023-09-02 00:39:28,15.08842875,0.0001586,53.216,117.6465,87.851,272.2664,0.00011084,1.477e-05,0.0,0 STARLINK-3507,1 51753U 22016AR  23245.02740911  .00001477  00000-0  11084-3 0  9998,2 51753  53.2160 117.6465 0001586  87.8510 272.2664 15.08842875 85931,6917.872,95.437,540.834,538.639,0.0
51753.0,STARLINK-3507,PAYLOAD,2023-09-02 08:36:24,15.08838993,0.0001849,53.2148,116.1608,82.6678,277.4524,7.3118e-05,8.76e-06,0.0,0 STARLINK-3507,1 51753U 22016AR  23245.35861413  .00000876  00000-0  73118-4 0  9994,2 51753  53.2148 116.1608 0001849  82.6678 277.4524 15.08838993 84915,6917.883,95.438,541.028,538.469,0.0
51753.0,STARLINK-3507,PAYLOAD,2023-09-02 21:19:29,15.08839167,0.0001823,53.2176,113.7789,78.1766,281.943,6.3339e-05,7.2e-06,0.0,0 STARLINK-3507,1 51753U 22016AR  23245.88853464  .00000720  00000-0  63339-4 0  9991,2 51753  53.2176 113.7789 0001823  78.1766 281.9430 15.08839167 84997,6917.883,95.438,541.009,538.487,0.0
51753.0,STARLINK-3507,PAYLOAD,2023-09-03 08:27:11,15.08837662,0.0001203,53.2184,111.6996,85.837,274.276,4.2386e-05,3.87e-06,0.0,0 STARLINK-3507,1 51753U 22016AR  23246.35221639  .00000387  00000-0  42386-4 0  9995,2 51753  53.2184 111.6996 0001203  85.8370 274.2760 15.08837662 85069,6917.888,95.438,540.585,538.92,0.0
